STARLINK-2107           
1 47723U 21017B   26068.44430129  .00000789  00000+0  38767-4 0  9991
2 47723  53.1583 127.8359 0001375  93.2955 266.8204 15.30195814278905
HYPERFIELD-1A           
1 60562U 24149CY  26068.76488211  .00008569  00000+0  30052-3 0  9998
2 60562  97.3842 149.5066 0003865 313.7844  46.3076 15.29681349 86836
